ELYSIUM STAR 2 & LFF    
1 43760U 18099C   24206.75315300  .00059902  00000+0  20754-2 0  9999
2 43760  97.5131 274.6537 0007131 145.3838 214.7868 15.29597878308970
